[{"OBJECT_NAME":"STARLINK-1807","OBJECT_ID":"2020-073AN","EPOCH":"2026-03-09T15:34:45.873120","MEAN_MOTION":15.23578372,"ECCENTRICITY":0.0005019,"INCLINATION":53.0589,"RA_OF_ASC_NODE":228.5688,"ARG_OF_PERICENTER":167.7565,"MEAN_ANOMALY":192.3554,"EPHEMERIS_TYPE":0,"CLASSIFICATION_TYPE":"U","NORAD_CAT_ID":46706,"ELEMENT_SET_NO":999,"REV_AT_EPOCH":29731,"BSTAR":0.0017212,"MEAN_MOTION_DOT":0.00041618,"MEAN_MOTION_DDOT":0},{"OBJECT_NAME":"OBJECT C","OBJECT_ID":"2025-012C","EPOCH":"2026-03-09T23:21:30.920256","MEAN_MOTION":15.25321174,"ECCENTRICITY":0.00067398,"INCLINATION":97.4321,"RA_OF_ASC_NODE":145.036,"ARG_OF_PERICENTER":249.6621,"MEAN_ANOMALY":110.3894,"EPHEMERIS_TYPE":0,"CLASSIFICATION_TYPE":"U","NORAD_CAT_ID":62727,"ELEMENT_SET_NO":999,"REV_AT_EPOCH":6325,"BSTAR":0.0005750193,"MEAN_MOTION_DOT":0.00014438,"MEAN_MOTION_DDOT":0}]
